SAUDISAT 1C             
1 27607U 02058C   20112.16917167  .00000010  00000-0  22084-4 0  9992
2 27607  64.5552 189.5109 0055211 192.3760 167.5990 14.75626974932277
SAUDISAT 2              
1 28371U 04025F   20112.74692096  .00000002  00000-0  11308-4 0  9990
2 28371  98.2743  62.2311 0026030  10.6480 349.5305 14.54376632838932
SAUDISAT 3              
1 31118U 07012B   20112.83264785 -.00000006  00000-0  70139-5 0  9995
2 31118  97.8640  73.1436 0015103 178.6681 181.4568 14.69160510697650
PISAT                   
1 41784U 16059B   20112.20458620  .00000087  00000-0  25799-4 0  9999
2 41784  98.0244 170.2362 0033056 132.3988 228.0020 14.63504659190530
FLYING LAPTOP           
1 42831U 17042G   20112.15507805  .00000259  00000-0  31380-4 0  9994
2 42831  97.5295 356.7236 0015495 113.4453 246.8397 14.91110120150751
